{
  "type": "FeatureCollection",
  "name": "control_zones",
  "description": "Zones dont le contrôle de facto ou la souveraineté de jure diffère de la carte de base Natural Earth (SPEC §4.5). Appliquées dans l'ordre ; within = propriétaires actuels concernés. Vérifiées au 25/09/2026 (sources dans chaque zone et dans SOURCES.md).",
  "features": [
    {
      "type": "Feature",
      "properties": {
        "id": "crimea",
        "nameFr": "Crimée",
        "controller": "RUS",
        "sovereign": "UKR",
        "ne_disputed": ["Crimea"],
        "source": "https://en.wikipedia.org/wiki/Annexation_of_Crimea_by_the_Russian_Federation ; résolution 68/262 de l'AGNU",
        "date": "2026-09-25",
        "confidence": "high",
        "note": "Annexée par la Russie en 2014 ; souveraineté ukrainienne reconnue par l'Assemblée générale de l'ONU (résolution 68/262). Géométrie : Natural Earth."
      },
      "geometry": null
    },
    {
      "type": "Feature",
      "properties": {
        "id": "ukraine_occupied",
        "nameFr": "Territoires ukrainiens occupés (hors Crimée)",
        "controller": "RUS",
        "sovereign": "UKR",
        "within": ["UKR"],
        "source": "DeepStateMap.live, carte du 24/09/2026 (https://deepstatemap.live) ; résolution ES-11/4 de l'AGNU",
        "date": "2026-09-25",
        "confidence": "medium",
        "note": "Zones « occupées » et ORDLO de DeepStateMap au 24/09/2026 16 h 24, simplifiées pour GeoSim (Douglas-Peucker, tolérance 0,02°, coordonnées arrondies au millième ; zones grises « statut inconnu » exclues). Données © DEEPSTATEUATECH LLC, usage soumis à sa licence : à remplacer si la licence ne convient pas (DECISIONS D31). Contrôle vérifié avec ISW/Critical Threats et ACLED (SOURCES.md)."
      },
      "geometry": {
        "type": "MultiPolygon",
        "coordinates": [
          [
            [
              [35.308, 50.977],
              [35.32, 50.943],
              [35.352, 50.974],
              [35.308, 50.977]
            ]
          ],
          [
            [
              [34.93, 51.206],
              [34.835, 51.169],
              [34.737, 51.179],
              [34.835, 51.118],
              [34.916, 51.143],
              [35, 51.101],
              [35.144, 51.137],
              [35.123, 51.165],
              [35.15, 51.223],
              [35.075, 51.232],
              [35.039, 51.204],
              [34.98, 51.236],
              [34.93, 51.206]
            ]
          ],
          [
            [
              [38.692, 48.729],
              [38.808, 48.713],
              [38.864, 48.751],
              [38.979, 48.745],
              [39.012, 48.658],
              [39.104, 48.65],
              [39.325, 48.777],
              [39.355, 48.767],
              [39.356, 48.697],
              [39.467, 48.629],
              [39.512, 48.636],
              [39.531, 48.586],
              [39.687, 48.587],
              [39.661, 48.611],
              [39.711, 48.655],
              [39.712, 48.716],
              [39.797, 48.841],
              [39.976, 48.794],
              [40.079, 48.87],
              [40.031, 48.916],
              [39.993, 48.868],
              [39.824, 48.889],
              [39.752, 48.987],
              [39.663, 49.001],
              [39.693, 49.051],
              [39.938, 49.056],
              [40.032, 49.18],
              [40.137, 49.24],
              [40.214, 49.245],
              [40.186, 49.284],
              [40.197, 49.345],
              [40.029, 49.454],
              [40.038, 49.52],
              [40.168, 49.569],
              [40.135, 49.616],
              [39.805, 49.558],
              [39.66, 49.615],
              [39.591, 49.719],
              [39.61, 49.734],
              [39.286, 49.756],
              [39.188, 49.886],
              [39.066, 49.815],
              [38.931, 49.797],
              [38.898, 49.87],
              [38.79, 49.879],
              [38.693, 49.935],
              [38.715, 49.988],
              [38.688, 50.008],
              [38.646, 49.956],
              [38.488, 49.964],
              [38.468, 49.995],
              [38.35, 50.006],
              [38.329, 50.086],
              [38.179, 50.08],
              [38.217, 49.987],
              [38.172, 49.942],
              [38.033, 49.9],
              [38.044, 49.933],
              [37.894, 50.05],
              [37.778, 50.006],
              [37.727, 49.961],
              [37.771, 49.913],
              [37.65, 49.891],
              [37.676, 49.819],
              [37.615, 49.803],
              [37.656, 49.753],
              [37.777, 49.733],
              [37.778, 49.673],
              [37.708, 49.642],
              [37.778, 49.651],
              [37.817, 49.615],
              [37.76, 49.556],
              [37.702, 49.553],
              [37.695, 49.503],
              [37.778, 49.482],
              [37.677, 49.421],
              [37.939, 49.379],
              [37.968, 49.287],
              [38.014, 49.268],
              [37.876, 49.226],
              [37.884, 49.193],
              [37.76, 49.186],
              [37.729, 49.108],
              [37.79, 49.099],
              [37.794, 49.069],
              [37.968, 49.061],
              [37.938, 49.019],
              [37.981, 48.99],
              [37.967, 48.97],
              [37.879, 48.951],
              [37.919, 48.912],
              [37.965, 48.942],
              [37.908, 48.87],
              [38.09, 48.94],
              [38.233, 48.941],
              [38.259, 48.969],
              [38.241, 49.006],
              [38.3, 49.025],
              [38.692, 48.729]
            ]
          ],
          [
            [
              [39.083, 47.852],
              [39.39, 47.866],
              [39.413, 47.831],
              [39.478, 47.859],
              [39.52, 47.825],
              [39.738, 47.828],
              [39.763, 47.87],
              [39.795, 47.867],
              [39.827, 47.951],
              [39.78, 48.039],
              [39.886, 48.048],
              [39.832, 48.067],
              [39.869, 48.079],
              [39.943, 48.229],
              [40.01, 48.225],
              [40.021, 48.254],
              [39.991, 48.317],
              [39.915, 48.27],
              [39.888, 48.309],
              [39.841, 48.31],
              [39.948, 48.355],
              [39.897, 48.448],
              [39.846, 48.474],
              [39.867, 48.509],
              [39.847, 48.573],
              [39.531, 48.586],
              [39.512, 48.636],
              [39.467, 48.629],
              [39.356, 48.697],
              [39.355, 48.767],
              [39.325, 48.777],
              [39.104, 48.65],
              [39.012, 48.658],
              [38.981, 48.744],
              [38.878, 48.753],
              [38.808, 48.713],
              [38.583, 48.72],
              [38.549, 48.675],
              [38.431, 48.65],
              [38.391, 48.416],
              [38.274, 48.359],
              [38.189, 48.417],
              [37.979, 48.391],
              [37.905, 48.34],
              [37.897, 48.215],
              [37.829, 48.175],
              [37.789, 48.1],
              [37.556, 48.01],
              [37.522, 47.946],
              [37.644, 47.887],
              [37.638, 47.752],
              [37.852, 47.642],
              [37.819, 47.546],
              [37.893, 47.47],
              [37.838, 47.378],
              [37.861, 47.348],
              [37.825, 47.321],
              [37.818, 47.119],
              [37.984, 47.084],
              [38.089, 47.106],
              [38.133, 47.064],
              [38.085, 47.02],
              [38.23, 47.119],
              [38.234, 47.231],
              [38.334, 47.269],
              [38.336, 47.306],
              [38.221, 47.305],
              [38.221, 47.327],
              [38.302, 47.393],
              [38.285, 47.544],
              [38.351, 47.576],
              [38.35, 47.617],
              [38.62, 47.645],
              [38.666, 47.669],
              [38.659, 47.7],
              [38.773, 47.686],
              [38.789, 47.816],
              [38.835, 47.816],
              [38.839, 47.864],
              [39.083, 47.852]
            ]
          ],
          [
            [
              [37.937, 48.796],
              [37.812, 48.77],
              [37.838, 48.758],
              [37.803, 48.693],
              [37.752, 48.661],
              [37.788, 48.624],
              [37.762, 48.602],
              [37.82, 48.582],
              [37.741, 48.541],
              [37.771, 48.522],
              [37.78, 48.492],
              [37.747, 48.486],
              [37.801, 48.387],
              [37.905, 48.34],
              [37.979, 48.391],
              [38.117, 48.421],
              [38.189, 48.417],
              [38.274, 48.359],
              [38.322, 48.371],
              [38.391, 48.416],
              [38.431, 48.65],
              [38.549, 48.675],
              [38.583, 48.72],
              [38.692, 48.729],
              [38.3, 49.025],
              [38.241, 49.006],
              [38.259, 48.969],
              [38.233, 48.941],
              [38.09, 48.94],
              [37.892, 48.865],
              [37.856, 48.82],
              [37.907, 48.833],
              [37.937, 48.796]
            ]
          ],
          [
            [
              [31.519, 46.312],
              [31.637, 46.234],
              [32.083, 46.166],
              [31.61, 46.247],
              [31.542, 46.29],
              [31.533, 46.37],
              [31.519, 46.312]
            ]
          ],
          [
            [
              [36.401, 50.307],
              [36.366, 50.272],
              [36.481, 50.242],
              [36.569, 50.245],
              [36.593, 50.276],
              [36.434, 50.331],
              [36.401, 50.307]
            ]
          ],
          [
            [
              [36.761, 50.29],
              [36.72, 50.277],
              [36.789, 50.246],
              [36.904, 50.249],
              [36.896, 50.275],
              [36.947, 50.263],
              [36.95, 50.288],
              [37.054, 50.323],
              [37.033, 50.349],
              [36.938, 50.35],
              [36.761, 50.29]
            ]
          ],
          [
            [
              [37.856, 48.193],
              [37.897, 48.215],
              [37.905, 48.34],
              [37.805, 48.382],
              [37.741, 48.495],
              [37.624, 48.526],
              [37.605, 48.442],
              [37.509, 48.445],
              [37.392, 48.497],
              [37.247, 48.46],
              [37.157, 48.366],
              [37.048, 48.357],
              [37.057, 48.27],
              [36.942, 48.24],
              [36.916, 48.114],
              [36.806, 48.06],
              [37.012, 48.006],
              [37.247, 48.027],
              [37.522, 47.946],
              [37.556, 48.01],
              [37.789, 48.1],
              [37.856, 48.193]
            ]
          ],
          [
            [
              [35.163, 51.11],
              [35.154, 51.11],
              [35.151, 51.106],
              [35.163, 51.11]
            ]
          ],
          [
            [
              [37.639, 50.179],
              [37.604, 50.148],
              [37.663, 50.14],
              [37.672, 50.083],
              [37.763, 50.069],
              [37.778, 50.006],
              [37.877, 50.053],
              [37.756, 50.078],
              [37.639, 50.179]
            ]
          ],
          [
            [
              [36.582, 47.86],
              [36.452, 47.807],
              [36.211, 47.779],
              [36.135, 47.714],
              [36.171, 47.655],
              [36.097, 47.626],
              [36.108, 47.585],
              [36.073, 47.595],
              [36.09, 47.582],
              [36.021, 47.516],
              [35.937, 47.527],
              [35.942, 47.494],
              [35.896, 47.466],
              [35.613, 47.504],
              [35.563, 47.558],
              [35.403, 47.538],
              [35.376, 47.579],
              [35.326, 47.568],
              [35.337, 47.53],
              [35.281, 47.503],
              [35.281, 47.472],
              [35.062, 47.449],
              [34.969, 47.389],
              [34.884, 47.406],
              [34.874, 47.45],
              [34.689, 47.495],
              [34.628, 47.546],
              [34.501, 47.5],
              [34.387, 47.514],
              [34.296, 47.429],
              [34.065, 47.424],
              [33.983, 47.231],
              [33.698, 46.995],
              [33.688, 46.92],
              [33.634, 46.9],
              [33.62, 46.829],
              [33.47, 46.821],
              [33.313, 46.751],
              [33.198, 46.768],
              [32.923, 46.718],
              [32.799, 46.632],
              [32.684, 46.621],
              [32.667, 46.583],
              [32.509, 46.54],
              [32.401, 46.472],
              [31.999, 46.488],
              [31.757, 46.548],
              [31.582, 46.537],
              [31.511, 46.577],
              [31.774, 46.371],
              [31.697, 46.447],
              [31.742, 46.485],
              [32.029, 46.438],
              [32.009, 46.364],
              [31.773, 46.327],
              [31.748, 46.298],
              [31.78, 46.264],
              [31.937, 46.292],
              [31.97, 46.257],
              [32.24, 46.179],
              [32.226, 46.132],
              [33.036, 46.008],
              [33.07, 46.014],
              [33.05, 46.028],
              [32.941, 46.046],
              [32.795, 46.03],
              [32.542, 46.068],
              [32.647, 46.108],
              [33.03, 46.113],
              [33.031, 46.15],
              [33.14, 46.128],
              [33.195, 46.17],
              [33.223, 46.157],
              [33.208, 46.127],
              [33.309, 46.114],
              [33.289, 46.075],
              [33.35, 46.093],
              [33.408, 46.041],
              [33.51, 46.028],
              [33.497, 46.07],
              [33.562, 46.074],
              [33.514, 46.108],
              [33.581, 46.157],
              [33.69, 46.204],
              [33.824, 46.187],
              [34.382, 46.035],
              [34.479, 45.947],
              [34.556, 45.989],
              [34.701, 45.959],
              [34.796, 45.892],
              [34.801, 45.805],
              [34.958, 45.76],
              [34.852, 46.009],
              [34.834, 46.2],
              [35.08, 46.277],
              [35.193, 46.371],
              [35.212, 46.447],
              [35.268, 46.432],
              [35.266, 46.356],
              [35.331, 46.331],
              [35.209, 46.19],
              [35.029, 46.145],
              [34.978, 46.077],
              [35.189, 46.151],
              [35.458, 46.441],
              [35.874, 46.646],
              [36.229, 46.651],
              [36.26, 46.619],
              [36.155, 46.528],
              [36.143, 46.503],
              [36.172, 46.498],
              [36.332, 46.677],
              [36.415, 46.726],
              [36.711, 46.781],
              [36.811, 46.73],
              [36.818, 46.702],
              [36.749, 46.643],
              [36.77, 46.632],
              [36.897, 46.811],
              [37.006, 46.869],
              [37.238, 46.951],
              [37.316, 46.914],
              [37.284, 46.873],
              [37.309, 46.87],
              [37.529, 47.078],
              [37.838, 47.1],
              [37.801, 47.173],
              [37.829, 47.343],
              [37.861, 47.348],
              [37.838, 47.378],
              [37.893, 47.47],
              [37.819, 47.546],
              [37.852, 47.642],
              [37.638, 47.752],
              [37.644, 47.887],
              [37.247, 48.027],
              [37.012, 48.006],
              [36.776, 48.067],
              [36.732, 47.961],
              [36.608, 47.937],
              [36.637, 47.913],
              [36.574, 47.897],
              [36.582, 47.86]
            ]
          ],
          [
            [
              [35.473, 50.725],
              [35.489, 50.777],
              [35.412, 50.802],
              [35.42, 50.842],
              [35.39, 50.866],
              [35.379, 50.808],
              [35.432, 50.719],
              [35.388, 50.708],
              [35.409, 50.655],
              [35.489, 50.659],
              [35.459, 50.689],
              [35.473, 50.725]
            ]
          ],
          [
            [
              [37.433, 50.444],
              [37.462, 50.419],
              [37.491, 50.457],
              [37.433, 50.444]
            ]
          ],
          [
            [
              [34.356, 51.861],
              [34.346, 51.842],
              [34.379, 51.84],
              [34.356, 51.861]
            ]
          ],
          [
            [
              [36.23, 50.372],
              [36.242, 50.358],
              [36.233, 50.364],
              [36.23, 50.372]
            ]
          ],
          [
            [
              [37.138, 50.361],
              [37.137, 50.332],
              [37.188, 50.354],
              [37.138, 50.361]
            ]
          ],
          [
            [
              [37.586, 50.239],
              [37.522, 50.229],
              [37.615, 50.222],
              [37.627, 50.255],
              [37.586, 50.239]
            ]
          ]
        ]
      }
    },
    {
      "type": "Feature",
      "properties": {
        "id": "abkhazia",
        "nameFr": "Abkhazie",
        "controller": "ABK",
        "sovereign": "GEO",
        "within": ["GEO"],
        "ne_disputed": ["Abkhazia"],
        "source": "https://en.wikipedia.org/wiki/Abkhazia ; Natural Earth 5.1.1 (zones disputées)",
        "date": "2026-09-25",
        "confidence": "high",
        "note": "Contrôlée par les autorités séparatistes, sous protection russe ; souveraineté géorgienne reconnue par la quasi-totalité des États."
      },
      "geometry": null
    },
    {
      "type": "Feature",
      "properties": {
        "id": "south_ossetia",
        "nameFr": "Ossétie du Sud",
        "controller": "OSS",
        "sovereign": "GEO",
        "within": ["GEO"],
        "ne_disputed": ["South Ossetia"],
        "source": "https://en.wikipedia.org/wiki/South_Ossetia ; Natural Earth 5.1.1 (zones disputées)",
        "date": "2026-09-25",
        "confidence": "high"
      },
      "geometry": null
    },
    {
      "type": "Feature",
      "properties": {
        "id": "transnistria",
        "nameFr": "Transnistrie",
        "controller": "PMR",
        "sovereign": "MDA",
        "within": ["MDA"],
        "ne_disputed": ["Transnistria"],
        "source": "https://en.wikipedia.org/wiki/Transnistria ; Natural Earth 5.1.1 (zones disputées)",
        "date": "2026-09-25",
        "confidence": "high"
      },
      "geometry": null
    },
    {
      "type": "Feature",
      "properties": {
        "id": "northern_cyprus",
        "nameFr": "Chypre du Nord",
        "controller": "CYN",
        "sovereign": "CYP",
        "within": ["CYN"],
        "ne_disputed": ["N. Cyprus"],
        "source": "https://en.wikipedia.org/wiki/Northern_Cyprus ; résolution 541 du Conseil de sécurité",
        "date": "2026-09-25",
        "confidence": "high",
        "note": "Souveraineté de jure : République de Chypre (résolution 541 du Conseil de sécurité, 1983)."
      },
      "geometry": null
    },
    {
      "type": "Feature",
      "properties": {
        "id": "somaliland",
        "nameFr": "Somaliland",
        "controller": "SOL",
        "sovereign": "SOM",
        "within": ["SOL"],
        "ne_disputed": ["Somaliland"],
        "source": "https://en.wikipedia.org/wiki/Somaliland",
        "date": "2026-09-25",
        "confidence": "medium",
        "note": "Souveraineté de jure somalienne (reconnaissance par le seul Israël, décembre 2025). L'est du Sool (Las Anod) est tenu par l'administration SSC-Khatumo, alliée de Mogadiscio : non représenté."
      },
      "geometry": null
    },
    {
      "type": "Feature",
      "properties": {
        "id": "western_sahara",
        "nameFr": "Sahara occidental (partie administrée par le Maroc)",
        "controller": null,
        "sovereign": "ESH",
        "within": ["MAR"],
        "ne_disputed": ["W. Sahara"],
        "source": "https://en.wikipedia.org/wiki/Western_Sahara ; résolution 2797 du Conseil de sécurité (31/10/2025)",
        "date": "2026-09-25",
        "confidence": "low",
        "note": "Territoire non autonome selon l'ONU. Le Maroc en administre environ 80 % (à l'ouest du mur) et le revendique ; la résolution 2797 (2025) retient le plan d'autonomie marocain comme base de négociation. Hypothèse à valider : souveraineté de jure laissée à l'entité du territoire (ESH), revendication marocaine dans disputes.yaml (DECISIONS D32)."
      },
      "geometry": null
    },
    {
      "type": "Feature",
      "properties": {
        "id": "golan",
        "nameFr": "Plateau du Golan",
        "controller": "ISR",
        "sovereign": "SYR",
        "within": ["ISR"],
        "ne_disputed": ["Golan Heights", "Shebaa Farms"],
        "source": "https://en.wikipedia.org/wiki/Golan_Heights ; résolution 497 du Conseil de sécurité",
        "date": "2026-09-25",
        "confidence": "high",
        "note": "Occupé depuis 1967, annexé en 1981 (non reconnu, sauf par les États-Unis) ; fermes de Chebaa revendiquées par le Liban (voir disputes.yaml)."
      },
      "geometry": null
    },
    {
      "type": "Feature",
      "properties": {
        "id": "east_jerusalem",
        "nameFr": "Jérusalem-Est",
        "controller": "ISR",
        "sovereign": "PSE",
        "within": ["ISR"],
        "ne_disputed": ["East Jerusalem", "Mount Scopus", "No Man's Land (Jerusalem)"],
        "source": "https://en.wikipedia.org/wiki/East_Jerusalem ; résolution 478 du Conseil de sécurité",
        "date": "2026-09-25",
        "confidence": "medium"
      },
      "geometry": null
    },
    {
      "type": "Feature",
      "properties": {
        "id": "syria_buffer_zone",
        "nameFr": "Zone tampon du Golan (Syrie) occupée par Israël",
        "controller": "ISR",
        "sovereign": "SYR",
        "within": ["SYR"],
        "ne_disputed": ["UNDOF Zone"],
        "source": "https://en.wikipedia.org/wiki/Israeli_invasion_of_Syria_(2024%E2%80%93present) ; https://news.antiwar.com/2026/08/26/israeli-dm-idf-troops-will-remain-in-syrian-buffer-zone/",
        "date": "2026-09-25",
        "confidence": "medium",
        "note": "Zone du FNUOD occupée depuis décembre 2024 (au moins neuf bases israéliennes) ; approximée par la zone du FNUOD de Natural Earth."
      },
      "geometry": null
    },
    {
      "type": "Feature",
      "properties": {
        "id": "south_lebanon",
        "nameFr": "Liban Sud occupé par Israël",
        "controller": "ISR",
        "sovereign": "LBN",
        "within": ["LBN"],
        "source": "https://en.wikipedia.org/wiki/2026_Lebanon_war ; https://www.aljazeera.com/news/2026/9/25/israeli-shelling-continues-as-lebanons-pm-demands-withdrawal-in-un-speech",
        "date": "2026-09-25",
        "confidence": "low",
        "note": "Occupation d'environ 600 km² jusqu'au Litani depuis mars 2026 ; accord-cadre de juin 2026 (retrait progressif) non appliqué. Bande tracée pour GeoSim le long de la Ligne bleue (approximation)."
      },
      "geometry": {
        "type": "Polygon",
        "coordinates": [
          [
            [35.08, 33.05],
            [35.08, 33.2],
            [35.25, 33.25],
            [35.4, 33.27],
            [35.5, 33.31],
            [35.58, 33.34],
            [35.66, 33.36],
            [35.72, 33.3],
            [35.62, 33.24],
            [35.57, 33.17],
            [35.5, 33.09],
            [35.3, 33.03],
            [35.08, 33.05]
          ]
        ]
      }
    },
    {
      "type": "Feature",
      "properties": {
        "id": "gaza_idf",
        "nameFr": "Bande de Gaza : zone tenue par l'armée israélienne",
        "controller": "ISR",
        "sovereign": "PSE",
        "within": ["PSE"],
        "source": "https://israelpolicyforum.org/2026/07/29/israeli-cabinet-approves-framework-for-gaza-stabilization-force-but-what-will-actually-change ; https://en.wikipedia.org/wiki/International_Stabilization_Force",
        "date": "2026-09-25",
        "confidence": "low",
        "note": "L'armée israélienne tient 64 à 70 % de la bande de Gaza à l'est de la « ligne jaune » (octobre 2025) ; tracé approximatif (Rafah et bande orientale)."
      },
      "geometry": {
        "type": "Polygon",
        "coordinates": [
          [
            [34.2, 31.19],
            [34.6, 31.19],
            [34.6, 31.62],
            [34.52, 31.62],
            [34.47, 31.5],
            [34.41, 31.4],
            [34.36, 31.32],
            [34.28, 31.27],
            [34.2, 31.19]
          ]
        ]
      }
    },
    {
      "type": "Feature",
      "properties": {
        "id": "rsf_darfur",
        "nameFr": "Darfour tenu par les Forces de soutien rapide",
        "controller": "RSF",
        "sovereign": "SDN",
        "within": ["SDN"],
        "admin1": ["SD-DN", "SD-DW", "SD-DE", "SD-DS"],
        "source": "https://www.sudanspost.com/territorial-control-map-sudan-conflict-as-of-june-21-2026/ ; https://www.cfr.org/global-conflict-tracker/conflict/power-struggle-sudan",
        "date": "2026-09-25",
        "confidence": "medium",
        "note": "Les cinq États du Darfour (El Fasher tombée en octobre 2025). Les poches des FSR au Kordofan et au Nil Bleu ne sont pas représentées (lignes mouvantes)."
      },
      "geometry": null
    },
    {
      "type": "Feature",
      "properties": {
        "id": "houthi_north",
        "nameFr": "Nord du Yémen tenu par Ansar Allah",
        "controller": "HOU",
        "sovereign": "YEM",
        "within": ["YEM"],
        "admin1": [
          "YE-SD",
          "YE-HJ",
          "YE-AM",
          "YE-MW",
          "YE-SN",
          "YE-SA",
          "YE-DH",
          "YE-RA",
          "YE-IB",
          "YE-HU",
          "YE-BA",
          "YE-JA"
        ],
        "source": "https://en.wikipedia.org/wiki/Yemeni_civil_war_(2014%E2%80%93present) ; https://www.aljazeera.com/economy/2026/9/13/red-sea-nations-watch-as-houthis-seize-bab-al-mandeb-strait",
        "date": "2026-09-25",
        "confidence": "medium",
        "note": "Gouvernorats tenus par les Houthis (approximation par gouvernorat : Taïz et Marib partagés ne sont pas inclus, Al-Jawf l'est)."
      },
      "geometry": null
    },
    {
      "type": "Feature",
      "properties": {
        "id": "houthi_mokha",
        "nameFr": "Côte de Mokha et Bab-el-Mandeb (prise houthie de septembre 2026)",
        "controller": "HOU",
        "sovereign": "YEM",
        "within": ["YEM"],
        "source": "https://www.aljazeera.com/economy/2026/9/13/red-sea-nations-watch-as-houthis-seize-bab-al-mandeb-strait ; https://moderndiplomacy.eu/2026/09/19/how-the-houthis-control-of-bab-el-mandeb-could-reshape-red-sea-shipping/",
        "date": "2026-09-25",
        "confidence": "low",
        "note": "Mokha et l'île de Périm prises le week-end du 11/09/2026 ; bande côtière tracée pour GeoSim jusqu'au détroit."
      },
      "geometry": {
        "type": "Polygon",
        "coordinates": [
          [
            [43.18, 13.42],
            [43.5, 13.42],
            [43.62, 12.95],
            [43.56, 12.58],
            [43.3, 12.58],
            [43.18, 13.42]
          ]
        ]
      }
    },
    {
      "type": "Feature",
      "properties": {
        "id": "lna_east_south",
        "nameFr": "Est et Sud de la Libye tenus par l'Armée nationale libyenne",
        "controller": "LNA",
        "sovereign": "LBY",
        "within": ["LBY"],
        "admin1": [
          "LY-BU",
          "LY-QB",
          "LY-JA",
          "LY-MJ",
          "LY-BA",
          "LY-AJ",
          "LY-KF",
          "LY-SR",
          "LY-JU",
          "LY-SB",
          "LY-WD",
          "LY-WS",
          "LY-MQ",
          "LY-GT"
        ],
        "source": "https://en.wikipedia.org/wiki/Libyan_crisis_(2011%E2%80%93present)",
        "date": "2026-09-25",
        "confidence": "medium",
        "note": "Cyrénaïque, Syrte, Al-Joufra et Fezzan ; le gouvernement d'union nationale (Tripoli) tient la Tripolitaine."
      },
      "geometry": null
    },
    {
      "type": "Feature",
      "properties": {
        "id": "m23_kivu",
        "nameFr": "Kivu tenu par l'AFC/M23",
        "controller": "M23",
        "sovereign": "COD",
        "within": ["COD"],
        "source": "https://www.criticalthreats.org/briefs/congo-war-security-review ; https://en.wikipedia.org/wiki/2025_Uvira_offensive",
        "date": "2026-09-25",
        "confidence": "low",
        "note": "Goma, Rutshuru, Masisi, Nyiragongo, Walikale, Bukavu, Kalehe, Kabare et Uvira ; polygone tracé pour GeoSim (approximation)."
      },
      "geometry": {
        "type": "Polygon",
        "coordinates": [
          [
            [29.62, -0.62],
            [29.05, -0.62],
            [28.6, -1.0],
            [28.0, -1.3],
            [28.0, -1.62],
            [28.4, -2.0],
            [28.55, -2.6],
            [28.75, -3.0],
            [28.95, -3.45],
            [29.15, -3.52],
            [29.28, -3.3],
            [29.05, -2.7],
            [29.0, -2.45],
            [29.35, -1.55],
            [29.6, -1.35],
            [29.72, -1.05],
            [29.62, -0.62]
          ]
        ]
      }
    },
    {
      "type": "Feature",
      "properties": {
        "id": "arakan",
        "nameFr": "État d'Arakan tenu par l'Armée d'Arakan",
        "controller": "AAR",
        "sovereign": "MMR",
        "within": ["MMR"],
        "admin1": ["MM-16"],
        "source": "https://en.wikipedia.org/wiki/Arakan_Army",
        "date": "2026-09-25",
        "confidence": "low",
        "note": "L'Armée d'Arakan contrôle 14 des 17 districts de l'État ; Sittwe, Kyaukphyu et Manaung restent à la junte (non représentés)."
      },
      "geometry": null
    }
  ]
}
